{
  "type": "FeatureCollection",
  "features": [
    {
      "type": "Feature",
      "properties": {
        "norad_id": 36744,
        "name": "COMS 1",
        "group": "weather",
        "lat": -4.327537033166399,
        "lon": -11.600101345061596,
        "alt_km": 35785.839206218436,
        "timestamp": "2025-12-07T09:35:09.434907+00:00",
        "meta_object_name": "COMS 1",
        "meta_object_id": "2010-032A",
        "meta_epoch": "2025-12-06T20:17:51.814176",
        "meta_mean_motion": 1.00271499,
        "meta_eccentricity": 0.00011842,
        "meta_inclination": 4.3265,
        "meta_ra_of_asc_node": 78.0619,
        "meta_arg_of_pericenter": 191.6112,
        "meta_mean_anomaly": 238.845,
        "meta_ephemeris_type": 0,
        "meta_classification_type": "U",
        "meta_norad_cat_id": 36744,
        "meta_element_set_no": 999,
        "meta_rev_at_epoch": 4916,
        "meta_bstar": 0,
        "meta_mean_motion_dot": -3.4e-06,
        "meta_mean_motion_ddot": 0,
        "tle_line1": "1 36744U 10032A   25340.84573859 -.00000340  00000+0  00000+0 0  9999",
        "tle_line2": "2 36744   4.3265  78.0619 0001184 191.6112 238.8450  1.00271499 49165"
      },
      "geometry": {
        "type": "Point",
        "coordinates": [
          -11.600101345061596,
          -4.327537033166399
        ]
      }
    },
    {
      "type": "Feature",
      "properties": {
        "norad_id": 37214,
        "name": "FENGYUN 3B",
        "group": "weather",
        "lat": -29.965847358145446,
        "lon": -163.89847289596307,
        "alt_km": 864.2592497159794,
        "timestamp": "2025-12-07T09:35:09.434919+00:00",
        "meta_object_name": "FENGYUN 3B",
        "meta_object_id": "2010-059A",
        "meta_epoch": "2025-12-06T22:41:18.501792",
        "meta_mean_motion": 14.1478736,
        "meta_eccentricity": 0.00222734,
        "meta_inclination": 98.9917,
        "meta_ra_of_asc_node": 20.8821,
        "meta_arg_of_pericenter": 14.1632,
        "meta_mean_anomaly": 44.828,
        "meta_ephemeris_type": 0,
        "meta_classification_type": "U",
        "meta_norad_cat_id": 37214,
        "meta_element_set_no": 999,
        "meta_rev_at_epoch": 78024,
        "meta_bstar": 0.00013180187,
        "meta_mean_motion_dot": 2.09e-06,
        "meta_mean_motion_ddot": 0,
        "tle_line1": "1 37214U 10059A   25340.94535303  .00000209  00000+0  13180-3 0  9994",
        "tle_line2": "2 37214  98.9917  20.8821 0022273  14.1632  44.8280 14.14787360780244"
      },
      "geometry": {
        "type": "Point",
        "coordinates": [
          -163.89847289596307,
          -29.965847358145446
        ]
      }
    },
    {
      "type": "Feature",
      "properties": {
        "norad_id": 37849,
        "name": "SUOMI NPP",
        "group": "weather",
        "lat": -39.01647842903565,
        "lon": -74.02002035583253,
        "alt_km": 834.8613716506406,
        "timestamp": "2025-12-07T09:35:09.434930+00:00",
        "meta_object_name": "SUOMI NPP",
        "meta_object_id": "2011-061A",
        "meta_epoch": "2025-12-06T21:55:49.235520",
        "meta_mean_motion": 14.19511597,
        "meta_eccentricity": 0.00020446,
        "meta_inclination": 98.7764,
        "meta_ra_of_asc_node": 278.3081,
        "meta_arg_of_pericenter": 130.4437,
        "meta_mean_anomaly": 229.6917,
        "meta_ephemeris_type": 0,
        "meta_classification_type": "U",
        "meta_norad_cat_id": 37849,
        "meta_element_set_no": 999,
        "meta_rev_at_epoch": 73116,
        "meta_bstar": 0.00011571054,
        "meta_mean_motion_dot": 2e-06,
        "meta_mean_motion_ddot": 0,
        "tle_line1": "1 37849U 11061A   25340.91376430  .00000200  00000+0  11571-3 0  9996",
        "tle_line2": "2 37849  98.7764 278.3081 0002044 130.4437 229.6917 14.19511597731162"
      },
      "geometry": {
        "type": "Point",
        "coordinates": [
          -74.02002035583253,
          -39.01647842903565
        ]
      }
    },
    {
      "type": "Feature",
      "properties": {
        "norad_id": 38552,
        "name": "METEOSAT-10 (MSG-3)",
        "group": "weather",
        "lat": 1.5184963398118743,
        "lon": -139.61939605801373,
        "alt_km": 35784.308294416944,
        "timestamp": "2025-12-07T09:35:09.434942+00:00",
        "meta_object_name": "METEOSAT-10 (MSG-3)",
        "meta_object_id": "2012-035B",
        "meta_epoch": "2025-12-06T22:13:37.485984",
        "meta_mean_motion": 1.00273186,
        "meta_eccentricity": 8.873e-05,
        "meta_inclination": 4.2148,
        "meta_ra_of_asc_node": 61.7327,
        "meta_arg_of_pericenter": 230.6924,
        "meta_mean_anomaly": 117.0622,
        "meta_ephemeris_type": 0,
        "meta_classification_type": "U",
        "meta_norad_cat_id": 38552,
        "meta_element_set_no": 999,
        "meta_rev_at_epoch": 4892,
        "meta_bstar": 0,
        "meta_mean_motion_dot": -2e-08,
        "meta_mean_motion_ddot": 0,
        "tle_line1": "1 38552U 12035B   25340.92612831 -.00000002  00000+0  00000+0 0  9991",
        "tle_line2": "2 38552   4.2148  61.7327 0000887 230.6924 117.0622  1.00273186 48929"
      },
      "geometry": {
        "type": "Point",
        "coordinates": [
          -139.61939605801373,
          1.5184963398118743
        ]
      }
    },
    {
      "type": "Feature",
      "properties": {
        "norad_id": 38771,
        "name": "METOP-B",
        "group": "weather",
        "lat": 42.86556896953283,
        "lon": -140.399744725006,
        "alt_km": 815.2096648073502,
        "timestamp": "2025-12-07T09:35:09.434954+00:00",
        "meta_object_name": "METOP-B",
        "meta_object_id": "2012-049A",
        "meta_epoch": "2025-12-06T21:07:13.009152",
        "meta_mean_motion": 14.21405061,
        "meta_eccentricity": 0.00026607,
        "meta_inclination": 98.6807,
        "meta_ra_of_asc_node": 30.9379,
        "meta_arg_of_pericenter": 157.1156,
        "meta_mean_anomaly": 203.014,
        "meta_ephemeris_type": 0,
        "meta_classification_type": "U",
        "meta_norad_cat_id": 38771,
        "meta_element_set_no": 999,
        "meta_rev_at_epoch": 68594,
        "meta_bstar": 0.00015146737,
        "meta_mean_motion_dot": 2.87e-06,
        "meta_mean_motion_ddot": 0,
        "tle_line1": "1 38771U 12049A   25340.88001168  .00000287  00000+0  15147-3 0  9995",
        "tle_line2": "2 38771  98.6807  30.9379 0002660 157.1156 203.0140 14.21405061685943"
      },
      "geometry": {
        "type": "Point",
        "coordinates": [
          -140.399744725006,
          42.86556896953283
        ]
      }
    },
    {
      "type": "Feature",
      "properties": {
        "norad_id": 39216,
        "name": "INSAT-3D",
        "group": "weather",
        "lat": -1.4205059056246048,
        "lon": -10.232176300705898,
        "alt_km": 35788.11634115111,
        "timestamp": "2025-12-07T09:35:09.434966+00:00",
        "meta_object_name": "INSAT-3D",
        "meta_object_id": "2013-038B",
        "meta_epoch": "2025-12-06T21:07:51.287808",
        "meta_mean_motion": 1.00272229,
        "meta_eccentricity": 0.00017572,
        "meta_inclination": 1.4291,
        "meta_ra_of_asc_node": 85.0535,
        "meta_arg_of_pericenter": 159.7991,
        "meta_mean_anomaly": 277.5651,
        "meta_ephemeris_type": 0,
        "meta_classification_type": "U",
        "meta_norad_cat_id": 39216,
        "meta_element_set_no": 999,
        "meta_rev_at_epoch": 4515,
        "meta_bstar": 0,
        "meta_mean_motion_dot": -3.34e-06,
        "meta_mean_motion_ddot": 0,
        "tle_line1": "1 39216U 13038B   25340.88045472 -.00000334  00000+0  00000+0 0  9997",
        "tle_line2": "2 39216   1.4291  85.0535 0001757 159.7991 277.5651  1.00272229 45150"
      },
      "geometry": {
        "type": "Point",
        "coordinates": [
          -10.232176300705898,
          -1.4205059056246048
        ]
      }
    },
    {
      "type": "Feature",
      "properties": {
        "norad_id": 39260,
        "name": "FENGYUN 3C",
        "group": "weather",
        "lat": 46.20746202070743,
        "lon": 148.28737467919052,
        "alt_km": 833.9344685820561,
        "timestamp": "2025-12-07T09:35:09.434977+00:00",
        "meta_object_name": "FENGYUN 3C",
        "meta_object_id": "2013-052A",
        "meta_epoch": "2025-12-06T22:46:51.574656",
        "meta_mean_motion": 14.15693621,
        "meta_eccentricity": 0.00139815,
        "meta_inclination": 98.4757,
        "meta_ra_of_asc_node": 318.9115,
        "meta_arg_of_pericenter": 213.3054,
        "meta_mean_anomaly": 146.7242,
        "meta_ephemeris_type": 0,
        "meta_classification_type": "U",
        "meta_norad_cat_id": 39260,
        "meta_element_set_no": 999,
        "meta_rev_at_epoch": 63136,
        "meta_bstar": 0.00012634782,
        "meta_mean_motion_dot": 2.07e-06,
        "meta_mean_motion_ddot": 0,
        "tle_line1": "1 39260U 13052A   25340.94920804  .00000207  00000+0  12635-3 0  9999",
        "tle_line2": "2 39260  98.4757 318.9115 0013981 213.3054 146.7242 14.15693621631363"
      },
      "geometry": {
        "type": "Point",
        "coordinates": [
          148.28737467919052,
          46.20746202070743
        ]
      }
    }
  ]
}